ONEWEB-0534             
1 55797U 23029B   24085.90444972  .00000106  00000+0  22855-3 0  9998
2 55797  87.9140  76.3207 0001937  80.3328 279.8024 13.20771523 53790
ONEWEB-0556             
1 55798U 23029C   24086.51682101  .00000044  00000+0  77290-4 0  9990
2 55798  87.9141  76.1920 0002619  69.7248 290.4167 13.20772428 54560
ONEWEB-0562             
1 55799U 23029D   24086.20113388 -.00000325  00000+0 -83107-3 0  9990
2 55799  87.9141  76.2450 0003106  81.8336 278.3149 13.20770705 54511
ONEWEB-0563             
1 55800U 23029E   24086.19482461 -.00000048  00000+0 -15063-3 0  9990
2 55800  87.9140  76.2614 0002158  78.2259 281.9116 13.20773745 54505
ONEWEB-0564             
1 55801U 23029F   24085.96124954  .00000133  00000+0  29570-3 0  9996
2 55801  87.9143  76.2925 0002350  91.8322 268.3080 13.20769770 53804
ONEWEB-0638             
1 55802U 23029G   24086.07455695  .00000224  00000+0  57090-3 0  9998
2 55802  87.8894  91.5718 0002114  69.2186 290.9170 13.14503426 53282
ONEWEB-0639             
1 55803U 23029H   24086.12424967  .00000048  00000+0  87773-4 0  9999
2 55803  87.9104 106.8143 0000711  51.4950 308.6247 13.19722829 52357
ONEWEB-0640             
1 55804U 23029J   24085.93183653  .00000327  00000+0  84794-3 0  9991
2 55804  87.8893  91.5981 0002022  62.8559 297.2777 13.14502925 52573
